IRIDIUM 126             
1 42809U 17039G   24289.79040125  .00000692  00000+0  24014-3 0  9996
2 42809  86.3949 248.2531 0002127  93.5360 266.6079 14.34215323382611
IRIDIUM 124             
1 42810U 17039H   24289.42630942  .00001316  00000+0  38529-3 0  9990
2 42810  86.4564 185.2270 0002701  78.8693 281.2812 14.43282689387162
IRIDIUM 128             
1 42811U 17039J   24289.50206802 -.00000623  00000+0 -22939-3 0  9994
2 42811  86.3906 279.9185 0002267  91.7974 268.3481 14.34215602382592
IRIDIUM 121             
1 42812U 17039K   24289.60013183  .00000301  00000+0  10028-3 0  9991
2 42812  86.3948 248.3562 0002200  85.9867 274.1580 14.34210648382579
IRIDIUM 133             
1 42955U 17061A   24289.81285557  .00000213  00000+0  68942-4 0  9994
2 42955  86.3907 279.8913 0002209  88.5386 271.6063 14.34215392367432
IRIDIUM 100             
1 42956U 17061B   24289.38789727  .00000384  00000+0  13013-3 0  9992
2 42956  86.3907 280.0020 0002368  91.5674 268.5793 14.34220905367370
IRIDIUM 122             
1 42957U 17061C   24289.00734460  .00000232  00000+0  75885-4 0  9994
2 42957  86.3906 280.1598 0002275  95.3064 264.8391 14.34219006367321
IRIDIUM 129             
1 42958U 17061D   24289.73040534 -.00000007  00000+0 -94233-5 0  9998
2 42958  86.3908 279.9178 0001921  91.0408 269.1008 14.34215267367447
